{
  "links" : {
    "next" : "https://api.nasa.gov/neo/rest/v1/feed?start_date=2007-05-16&end_date=2007-05-16&detailed=true&api_key=t0TVs3DtDT2H8Oy2Zy8m2eVrNsAVKAexjcZXUckd",
    "prev" : "https://api.nasa.gov/neo/rest/v1/feed?start_date=2007-05-14&end_date=2007-05-14&detailed=true&api_key=t0TVs3DtDT2H8Oy2Zy8m2eVrNsAVKAexjcZXUckd",
    "self" : "https://api.nasa.gov/neo/rest/v1/feed?start_date=2007-05-15&end_date=2007-05-15&detailed=true&api_key=t0TVs3DtDT2H8Oy2Zy8m2eVrNsAVKAexjcZXUckd"
  },
  "element_count" : 5,
  "near_earth_objects" : {
    "2007-05-15" : [ {
      "links" : {
        "self" : "https://api.nasa.gov/neo/rest/v1/neo/2154555?api_key=t0TVs3DtDT2H8Oy2Zy8m2eVrNsAVKAexjcZXUckd"
      },
      "neo_reference_id" : "2154555",
      "name" : "154555 (2003 HA)",
      "nasa_jpl_url" : "http://ssd.jpl.nasa.gov/sbdb.cgi?sstr=2154555",
      "absolute_magnitude_h" : 16.7,
      "estimated_diameter" : {
        "kilometers" : {
          "estimated_diameter_min" : 1.214940408,
          "estimated_diameter_max" : 2.7166893409
        },
        "meters" : {
          "estimated_diameter_min" : 1214.9404079963,
          "estimated_diameter_max" : 2716.6893408911
        },
        "miles" : {
          "estimated_diameter_min" : 0.7549287363,
          "estimated_diameter_max" : 1.6880719724
        },
        "feet" : {
          "estimated_diameter_min" : 3986.0250881707,
          "estimated_diameter_max" : 8913.0230571693
        }
      },
      "is_potentially_hazardous_asteroid" : false,
      "close_approach_data" : [ {
        "close_approach_date" : "2007-05-15",
        "epoch_date_close_approach" : 1179212400000,
        "relative_velocity" : {
          "kilometers_per_second" : "23.4317259564",
          "kilometers_per_hour" : "84354.2134429064",
          "miles_per_hour" : "52414.4277917882"
        },
        "miss_distance" : {
          "astronomical" : "0.1885081127",
          "lunar" : "73.3296508789",
          "kilometers" : "28200412",
          "miles" : "17522924"
        },
        "orbiting_body" : "Earth"
      } ],
      "orbital_data" : {
        "orbit_id" : "133",
        "orbit_determination_date" : "2017-04-15 06:14:38",
        "orbit_uncertainty" : "0",
        "minimum_orbit_intersection" : ".115277",
        "jupiter_tisserand_invariant" : "5.016",
        "epoch_osculation" : "2458000.5",
        "eccentricity" : ".5802140332037762",
        "semi_major_axis" : "1.184252563291688",
        "inclination" : "36.82687223136637",
        "ascending_node_longitude" : "53.51079565951329",
        "orbital_period" : "470.7224668544186",
        "perihelion_distance" : ".4971326072123073",
        "perihelion_argument" : "277.1296415659076",
        "aphelion_distance" : "1.871372519371068",
        "perihelion_time" : "2458052.272978598442",
        "mean_anomaly" : "320.4049655416096",
        "mean_motion" : ".7647818520447591",
        "equinox" : "J2000"
      }
    }, {
      "links" : {
        "self" : "https://api.nasa.gov/neo/rest/v1/neo/3429818?api_key=t0TVs3DtDT2H8Oy2Zy8m2eVrNsAVKAexjcZXUckd"
      },
      "neo_reference_id" : "3429818",
      "name" : "(2008 TC2)",
      "nasa_jpl_url" : "http://ssd.jpl.nasa.gov/sbdb.cgi?sstr=3429818",
      "absolute_magnitude_h" : 23.3,
      "estimated_diameter" : {
        "kilometers" : {
          "estimated_diameter_min" : 0.058150704,
          "estimated_diameter_max" : 0.130028927
        },
        "meters" : {
          "estimated_diameter_min" : 58.1507039646,
          "estimated_diameter_max" : 130.0289270043
        },
        "miles" : {
          "estimated_diameter_min" : 0.0361331611,
          "estimated_diameter_max" : 0.0807962044
        },
        "feet" : {
          "estimated_diameter_min" : 190.7831555951,
          "estimated_diameter_max" : 426.6041048727
        }
      },
      "is_potentially_hazardous_asteroid" : false,
      "close_approach_data" : [ {
        "close_approach_date" : "2007-05-15",
        "epoch_date_close_approach" : 1179212400000,
        "relative_velocity" : {
          "kilometers_per_second" : "9.2118392451",
          "kilometers_per_hour" : "33162.6212823723",
          "miles_per_hour" : "20605.9632073718"
        },
        "miss_distance" : {
          "astronomical" : "0.2557733028",
          "lunar" : "99.4958190918",
          "kilometers" : "38263144",
          "miles" : "23775614"
        },
        "orbiting_body" : "Earth"
      } ],
      "orbital_data" : {
        "orbit_id" : "15",
        "orbit_determination_date" : "2017-04-06 09:02:42",
        "orbit_uncertainty" : "5",
        "minimum_orbit_intersection" : ".018281",
        "jupiter_tisserand_invariant" : "5.738",
        "epoch_osculation" : "2458000.5",
        "eccentricity" : ".3104892212731174",
        "semi_major_axis" : "1.065854302095304",
        "inclination" : "5.75375969498926",
        "ascending_node_longitude" : "196.4877401864274",
        "orbital_period" : "401.9251574669905",
        "perihelion_distance" : ".7349180298471307",
        "perihelion_argument" : "71.96610776933649",
        "aphelion_distance" : "1.396790574343476",
        "perihelion_time" : "2457877.501240305084",
        "mean_anomaly" : "110.1686537096309",
        "mean_motion" : ".8956891433937332",
        "equinox" : "J2000"
      }
    }, {
      "links" : {
        "self" : "https://api.nasa.gov/neo/rest/v1/neo/3735468?api_key=t0TVs3DtDT2H8Oy2Zy8m2eVrNsAVKAexjcZXUckd"
      },
      "neo_reference_id" : "3735468",
      "name" : "(2015 WY1)",
      "nasa_jpl_url" : "http://ssd.jpl.nasa.gov/sbdb.cgi?sstr=3735468",
      "absolute_magnitude_h" : 22.1,
      "estimated_diameter" : {
        "kilometers" : {
          "estimated_diameter_min" : 0.1010543415,
          "estimated_diameter_max" : 0.2259643771
        },
        "meters" : {
          "estimated_diameter_min" : 101.054341542,
          "estimated_diameter_max" : 225.9643771094
        },
        "miles" : {
          "estimated_diameter_min" : 0.0627922373,
          "estimated_diameter_max" : 0.140407711
        },
        "feet" : {
          "estimated_diameter_min" : 331.5431259047,
          "estimated_diameter_max" : 741.3529669956
        }
      },
      "is_potentially_hazardous_asteroid" : false,
      "close_approach_data" : [ {
        "close_approach_date" : "2007-05-15",
        "epoch_date_close_approach" : 1179212400000,
        "relative_velocity" : {
          "kilometers_per_second" : "13.9668434212",
          "kilometers_per_hour" : "50280.636316226",
          "miles_per_hour" : "31242.4320488239"
        },
        "miss_distance" : {
          "astronomical" : "0.4321016377",
          "lunar" : "168.0875396729",
          "kilometers" : "64641484",
          "miles" : "40166356"
        },
        "orbiting_body" : "Earth"
      } ],
      "orbital_data" : {
        "orbit_id" : "18",
        "orbit_determination_date" : "2017-04-06 08:30:29",
        "orbit_uncertainty" : "5",
        "minimum_orbit_intersection" : ".0854498",
        "jupiter_tisserand_invariant" : "4.819",
        "epoch_osculation" : "2458000.5",
        "eccentricity" : ".2349420148787753",
        "semi_major_axis" : "1.316765428147867",
        "inclination" : "27.49201337467281",
        "ascending_node_longitude" : "65.30558872688698",
        "orbital_period" : "551.900833823778",
        "perihelion_distance" : "1.007401905336094",
        "perihelion_argument" : "48.09915503202075",
        "aphelion_distance" : "1.626128950959641",
        "perihelion_time" : "2457949.770198193830",
        "mean_anomaly" : "33.09059804039453",
        "mean_motion" : ".6522910964018366",
        "equinox" : "J2000"
      }
    } ]
  }
}